{
    "week": 293,
    "satellites": [
        {
            "Name": "COSMOS 2485 (747)",
            "Line1": "1 39155U 13019A   24318.90869928  .00000019  00000+0  00000+0 0  9994",
            "Line2": "2 39155  65.1125  93.1263 0023300 227.3846 132.3997  2.13105659 89912",
            "SatelliteNumber": "39155",
            "Classification": "U",
            "LaunchYear": "13",
            "LaunchNumber": "019",
            "PieceOfLaunch": "A",
            "EpochYear": "24",
            "EpochDay": 318.90869928,
            "FirstDerivativeMeanMotion": 1.9e-07,
            "SecondDerivativeMeanMotion": "00000+0",
            "BSTAR": "00000+0",
            "SetNumber": "999",
            "Inclination": 65.1125,
            "RAAN": 93.1263,
            "Eccentricity": 0.00233,
            "ArgumentOfPerigee": 227.3846,
            "MeanAnomaly": 132.3997,
            "MeanMotion": 2.13105659,
            "RevolutionNumber": "8991"
        },
        {
            "Name": "COSMOS 2492 (754)",
            "Line1": "1 39620U 14012A   24320.74093452 -.00000046  00000+0  00000+0 0  9992",
            "Line2": "2 39620  65.6084 333.5263 0014164 309.5042  50.4109  2.13103091 82914",
            "SatelliteNumber": "39620",
            "Classification": "U",
            "LaunchYear": "14",
            "LaunchNumber": "012",
            "PieceOfLaunch": "A",
            "EpochYear": "24",
            "EpochDay": 320.74093452,
            "FirstDerivativeMeanMotion": -4.6e-07,
            "SecondDerivativeMeanMotion": "00000+0",
            "BSTAR": "00000+0",
            "SetNumber": "999",
            "Inclination": 65.6084,
            "RAAN": 333.5263,
            "Eccentricity": 0.0014164,
            "ArgumentOfPerigee": 309.5042,
            "MeanAnomaly": 50.4109,
            "MeanMotion": 2.13103091,
            "RevolutionNumber": "8291"
        },
        {
            "Name": "COSMOS 2500 (755)",
            "Line1": "1 40001U 14032A   24320.44905699 -.00000044  00000+0  00000+0 0  9999",
            "Line2": "2 40001  65.5455 333.3293 0008725 219.2182 140.7597  2.13105802 81127",
            "SatelliteNumber": "40001",
            "Classification": "U",
            "LaunchYear": "14",
            "LaunchNumber": "032",
            "PieceOfLaunch": "A",
            "EpochYear": "24",
            "EpochDay": 320.44905699,
            "FirstDerivativeMeanMotion": -4.4e-07,
            "SecondDerivativeMeanMotion": "00000+0",
            "BSTAR": "00000+0",
            "SetNumber": "999",
            "Inclination": 65.5455,
            "RAAN": 333.3293,
            "Eccentricity": 0.0008725,
            "ArgumentOfPerigee": 219.2182,
            "MeanAnomaly": 140.7597,
            "MeanMotion": 2.13105802,
            "RevolutionNumber": "8112"
        },
        {
            "Name": "COSMOS 2501 (702K)",
            "Line1": "1 40315U 14075A   24320.23476440  .00000051  00000+0  00000+0 0  9995",
            "Line2": "2 40315  63.6163 210.4302 0019461 206.2313 153.7484  2.13101312 77516",
            "SatelliteNumber": "40315",
            "Classification": "U",
            "LaunchYear": "14",
            "LaunchNumber": "075",
            "PieceOfLaunch": "A",
            "EpochYear": "24",
            "EpochDay": 320.2347644,
            "FirstDerivativeMeanMotion": 5.1e-07,
            "SecondDerivativeMeanMotion": "00000+0",
            "BSTAR": "00000+0",
            "SetNumber": "999",
            "Inclination": 63.6163,
            "RAAN": 210.4302,
            "Eccentricity": 0.0019461,
            "ArgumentOfPerigee": 206.2313,
            "MeanAnomaly": 153.7484,
            "MeanMotion": 2.13101312,
            "RevolutionNumber": "7751"
        },
        {
            "Name": "COSMOS 2514 (751)",
            "Line1": "1 41330U 16008A   24321.15614920 -.00000049  00000+0  00000+0 0  9998",
            "Line2": "2 41330  65.3387 332.7762 0012796 220.6632 139.2781  2.13102535 68301",
            "SatelliteNumber": "41330",
            "Classification": "U",
            "LaunchYear": "16",
            "LaunchNumber": "008",
            "PieceOfLaunch": "A",
            "EpochYear": "24",
            "EpochDay": 321.1561492,
            "FirstDerivativeMeanMotion": -4.9e-07,
            "SecondDerivativeMeanMotion": "00000+0",
            "BSTAR": "00000+0",
            "SetNumber": "999",
            "Inclination": 65.3387,
            "RAAN": 332.7762,
            "Eccentricity": 0.0012796,
            "ArgumentOfPerigee": 220.6632,
            "MeanAnomaly": 139.2781,
            "MeanMotion": 2.13102535,
            "RevolutionNumber": "6830"
        },
        {
            "Name": "COSMOS 2522 (752)",
            "Line1": "1 42939U 17055A   24320.99596078  .00000050  00000+0  00000+0 0  9992",
            "Line2": "2 42939  64.0778 211.5818 0006859 234.1384 125.8777  2.13101876 55657",
            "SatelliteNumber": "42939",
            "Classification": "U",
            "LaunchYear": "17",
            "LaunchNumber": "055",
            "PieceOfLaunch": "A",
            "EpochYear": "24",
            "EpochDay": 320.99596078,
            "FirstDerivativeMeanMotion": 5e-07,
            "SecondDerivativeMeanMotion": "00000+0",
            "BSTAR": "00000+0",
            "SetNumber": "999",
            "Inclination": 64.0778,
            "RAAN": 211.5818,
            "Eccentricity": 0.0006859,
            "ArgumentOfPerigee": 234.1384,
            "MeanAnomaly": 125.8777,
            "MeanMotion": 2.13101876,
            "RevolutionNumber": "5565"
        },
        {
            "Name": "COSMOS 2527 (756)",
            "Line1": "1 43508U 18053A   24320.48606506  .00000004  00000+0  00000+0 0  9995",
            "Line2": "2 43508  65.2730  93.2573 0008217 217.5451 142.3721  2.13102230 49947",
            "SatelliteNumber": "43508",
            "Classification": "U",
            "LaunchYear": "18",
            "LaunchNumber": "053",
            "PieceOfLaunch": "A",
            "EpochYear": "24",
            "EpochDay": 320.48606506,
            "FirstDerivativeMeanMotion": 4e-08,
            "SecondDerivativeMeanMotion": "00000+0",
            "BSTAR": "00000+0",
            "SetNumber": "999",
            "Inclination": 65.273,
            "RAAN": 93.2573,
            "Eccentricity": 0.0008217,
            "ArgumentOfPerigee": 217.5451,
            "MeanAnomaly": 142.3721,
            "MeanMotion": 2.1310223,
            "RevolutionNumber": "4994"
        },
        {
            "Name": "COSMOS 2529 (757)",
            "Line1": "1 43687U 18086A   24321.05406942  .00000049  00000+0  00000+0 0  9994",
            "Line2": "2 43687  64.2935 212.1334 0008128 260.8251  99.1621  2.13101921 46961",
            "SatelliteNumber": "43687",
            "Classification": "U",
            "LaunchYear": "18",
            "LaunchNumber": "086",
            "PieceOfLaunch": "A",
            "EpochYear": "24",
            "EpochDay": 321.05406942,
            "FirstDerivativeMeanMotion": 4.9e-07,
            "SecondDerivativeMeanMotion": "00000+0",
            "BSTAR": "00000+0",
            "SetNumber": "999",
            "Inclination": 64.2935,
            "RAAN": 212.1334,
            "Eccentricity": 0.0008128,
            "ArgumentOfPerigee": 260.8251,
            "MeanAnomaly": 99.1621,
            "MeanMotion": 2.13101921,
            "RevolutionNumber": "4696"
        },
        {
            "Name": "COSMOS 2534 (758)",
            "Line1": "1 44299U 19030A   24321.58729885  .00000047  00000+0  00000+0 0  9994",
            "Line2": "2 44299  64.3667 212.0830 0010312 285.9409 257.3540  2.13101890 42605",
            "SatelliteNumber": "44299",
            "Classification": "U",
            "LaunchYear": "19",
            "LaunchNumber": "030",
            "PieceOfLaunch": "A",
            "EpochYear": "24",
            "EpochDay": 321.58729885,
            "FirstDerivativeMeanMotion": 4.7e-07,
            "SecondDerivativeMeanMotion": "00000+0",
            "BSTAR": "00000+0",
            "SetNumber": "999",
            "Inclination": 64.3667,
            "RAAN": 212.083,
            "Eccentricity": 0.0010312,
            "ArgumentOfPerigee": 285.9409,
            "MeanAnomaly": 257.354,
            "MeanMotion": 2.1310189,
            "RevolutionNumber": "4260"
        },
        {
            "Name": "COSMOS 2544 (759)",
            "Line1": "1 44850U 19088A   24320.89950418  .00000002  00000+0  00000+0 0  9992",
            "Line2": "2 44850  65.2598  93.0775 0012455 247.3051 112.5370  2.13101972 38396",
            "SatelliteNumber": "44850",
            "Classification": "U",
            "LaunchYear": "19",
            "LaunchNumber": "088",
            "PieceOfLaunch": "A",
            "EpochYear": "24",
            "EpochDay": 320.89950418,
            "FirstDerivativeMeanMotion": 2e-08,
            "SecondDerivativeMeanMotion": "00000+0",
            "BSTAR": "00000+0",
            "SetNumber": "999",
            "Inclination": 65.2598,
            "RAAN": 93.0775,
            "Eccentricity": 0.0012455,
            "ArgumentOfPerigee": 247.3051,
            "MeanAnomaly": 112.537,
            "MeanMotion": 2.13101972,
            "RevolutionNumber": "3839"
        }
    ]
}